GOES 1 (SMS-C)          
1 08366U 75100A   26066.14072602  .00000012  00000+0  00000+0 0  9999
2 08366   4.8676 278.7178 0005394   0.2077 175.6001  1.00237982184042
GOES 2                  
1 10061U 77048A   26066.03071512 -.00000197  00000+0  00000+0 0  9999
2 10061   6.6630 294.1996 0013906  47.8889 301.0662  0.99395943 45259
GOES 3                  
1 10953U 78062A   26065.61835042 -.00000303  00000+0  00000+0 0  9994
2 10953   7.1339 300.0337 0002710 356.3745 241.7626  0.99365874127517
GOES 4                  
1 11964U 80074A   26065.99726164 -.00000194  00000+0  00000+0 0  9996
2 11964   8.2066 303.7135 0032137 103.0985  54.8046  0.99230101126426
GOES 5                  
1 12472U 81049A   26066.13445559 -.00000189  00000+0  00000+0 0  9991
2 12472   9.5411 316.3256 0004648 337.5705 190.1132  1.00210924121826
GOES 6                  
1 14050U 83041A   26065.27450875 -.00000070  00000+0  00000+0 0  9999
2 14050  10.3545 321.8887 0002335 307.3462 243.7345  1.00217834214983
GOES 7                  
1 17561U 87022A   26065.65539720  .00000087  00000+0  00000+0 0  9998
2 17561  13.0188 338.3588 0003975  15.0271 270.6719  0.99895451125933
GOES 8                  
1 23051U 94022A   26065.53572801 -.00000279  00000+0  00000+0 0  9995
2 23051  14.3424  14.4543 0005055  14.7004 125.4807  0.98908193123115
GOES 9                  
1 23581U 95025A   26065.41962884 -.00000036  00000+0  00000+0 0  9999
2 23581  13.8716  15.2988 0003579 210.7665 358.3060  0.98798221111746
GOES 10                 
1 24786U 97019A   26065.88376796 -.00000017  00000+0  00000+0 0  9993
2 24786  13.0069  21.8289 0030868 239.2562 307.4624  0.99121823105054
GOES 11                 
1 26352U 00022A   26065.92086147 -.00000052  00000+0  00000+0 0  9994
2 26352  11.5858  47.4192 0005901 255.1845 106.4300  0.99040209 51463
GOES 12                 
1 26871U 01031A   26065.85291697 -.00000151  00000+0  00000+0 0  9991
2 26871  11.9994  38.1221 0008762 296.3208  67.4291  0.99136373 89758
EWS-G1 (GOES 13)        
1 29155U 06018A   26066.14072602  .00000048  00000+0  00000+0 0  9999
2 29155   4.2678  77.6681 0062004 273.3828  98.6687  0.98785715 42247
GOES 14                 
1 35491U 09033A   26066.15739094  .00000121  00000+0  00000+0 0  9997
2 35491   1.4261  84.3808 0001762 257.9935  79.3090  1.00100668  5561
EWS-G2 (GOES 15)        
1 36411U 10008A   26066.09337539  .00000019  00000+0  00000+0 0  9991
2 36411   1.0152  85.0941 0002107  17.4335 159.3498  1.00269918 58611
GOES 16                 
1 41866U 16071A   26066.12961598 -.00000093  00000+0  00000+0 0  9992
2 41866   0.1375  89.0814 0002367 223.3484 154.3671  1.00272234 34080
GOES 17                 
1 43226U 18022A   26066.12405812 -.00000184  00000+0  00000+0 0  9995
2 43226   0.6749  87.4941 0002093 226.3837 166.0912  1.00270120 29406
