[{"OBJECT_NAME":"GOES 1 (SMS-C)","OBJECT_ID":"1975-100A","EPOCH":"2026-03-07T03:22:38.728128","MEAN_MOTION":1.00237982,"ECCENTRICITY":0.0005394,"INCLINATION":4.8676,"RA_OF_ASC_NODE":278.7178,"ARG_OF_PERICENTER":0.2077,"MEAN_ANOMALY":175.6001,"EPHEMERIS_TYPE":0,"CLASSIFICATION_TYPE":"U","NORAD_CAT_ID":8366,"ELEMENT_SET_NO":999,"REV_AT_EPOCH":18404,"BSTAR":0,"MEAN_MOTION_DOT":1.2e-7,"MEAN_MOTION_DDOT":0},{"OBJECT_NAME":"GOES 2","OBJECT_ID":"1977-048A","EPOCH":"2026-03-07T00:44:13.786368","MEAN_MOTION":0.99395943,"ECCENTRICITY":0.0013906,"INCLINATION":6.663,"RA_OF_ASC_NODE":294.1996,"ARG_OF_PERICENTER":47.8889,"MEAN_ANOMALY":301.0662,"EPHEMERIS_TYPE":0,"CLASSIFICATION_TYPE":"U","NORAD_CAT_ID":10061,"ELEMENT_SET_NO":999,"REV_AT_EPOCH":4525,"BSTAR":0,"MEAN_MOTION_DOT":-1.97e-6,"MEAN_MOTION_DDOT":0},{"OBJECT_NAME":"GOES 3","OBJECT_ID":"1978-062A","EPOCH":"2026-03-06T14:50:25.476288","MEAN_MOTION":0.99365874,"ECCENTRICITY":0.000271,"INCLINATION":7.1339,"RA_OF_ASC_NODE":300.0337,"ARG_OF_PERICENTER":356.3745,"MEAN_ANOMALY":241.7626,"EPHEMERIS_TYPE":0,"CLASSIFICATION_TYPE":"U","NORAD_CAT_ID":10953,"ELEMENT_SET_NO":999,"REV_AT_EPOCH":12751,"BSTAR":0,"MEAN_MOTION_DOT":-3.03e-6,"MEAN_MOTION_DDOT":0},{"OBJECT_NAME":"GOES 4","OBJECT_ID":"1980-074A","EPOCH":"2026-03-06T23:56:03.405696","MEAN_MOTION":0.99230101,"ECCENTRICITY":0.0032137,"INCLINATION":8.2066,"RA_OF_ASC_NODE":303.7135,"ARG_OF_PERICENTER":103.0985,"MEAN_ANOMALY":54.8046,"EPHEMERIS_TYPE":0,"CLASSIFICATION_TYPE":"U","NORAD_CAT_ID":11964,"ELEMENT_SET_NO":999,"REV_AT_EPOCH":12642,"BSTAR":0,"MEAN_MOTION_DOT":-1.94e-6,"MEAN_MOTION_DDOT":0},{"OBJECT_NAME":"GOES 5","OBJECT_ID":"1981-049A","EPOCH":"2026-03-07T03:13:36.962976","MEAN_MOTION":1.00210924,"ECCENTRICITY":0.0004648,"INCLINATION":9.5411,"RA_OF_ASC_NODE":316.3256,"ARG_OF_PERICENTER":337.5705,"MEAN_ANOMALY":190.1132,"EPHEMERIS_TYPE":0,"CLASSIFICATION_TYPE":"U","NORAD_CAT_ID":12472,"ELEMENT_SET_NO":999,"REV_AT_EPOCH":12182,"BSTAR":0,"MEAN_MOTION_DOT":-1.89e-6,"MEAN_MOTION_DDOT":0},{"OBJECT_NAME":"GOES 6","OBJECT_ID":"1983-041A","EPOCH":"2026-03-06T06:35:17.556000","MEAN_MOTION":1.00217834,"ECCENTRICITY":0.00023354,"INCLINATION":10.3545,"RA_OF_ASC_NODE":321.8887,"ARG_OF_PERICENTER":307.3462,"MEAN_ANOMALY":243.7345,"EPHEMERIS_TYPE":0,"CLASSIFICATION_TYPE":"U","NORAD_CAT_ID":14050,"ELEMENT_SET_NO":999,"REV_AT_EPOCH":21498,"BSTAR":0,"MEAN_MOTION_DOT":-7.0e-7,"MEAN_MOTION_DDOT":0},{"OBJECT_NAME":"GOES 7","OBJECT_ID":"1987-022A","EPOCH":"2026-03-06T15:43:46.318080","MEAN_MOTION":0.99895451,"ECCENTRICITY":0.0003975,"INCLINATION":13.0188,"RA_OF_ASC_NODE":338.3588,"ARG_OF_PERICENTER":15.0271,"MEAN_ANOMALY":270.6719,"EPHEMERIS_TYPE":0,"CLASSIFICATION_TYPE":"U","NORAD_CAT_ID":17561,"ELEMENT_SET_NO":999,"REV_AT_EPOCH":12593,"BSTAR":0,"MEAN_MOTION_DOT":8.7e-7,"MEAN_MOTION_DDOT":0},{"OBJECT_NAME":"GOES 8","OBJECT_ID":"1994-022A","EPOCH":"2026-03-06T12:51:26.900064","MEAN_MOTION":0.98908193,"ECCENTRICITY":0.00050555,"INCLINATION":14.3424,"RA_OF_ASC_NODE":14.4543,"ARG_OF_PERICENTER":14.7004,"MEAN_ANOMALY":125.4807,"EPHEMERIS_TYPE":0,"CLASSIFICATION_TYPE":"U","NORAD_CAT_ID":23051,"ELEMENT_SET_NO":999,"REV_AT_EPOCH":12311,"BSTAR":0,"MEAN_MOTION_DOT":-2.79e-6,"MEAN_MOTION_DDOT":0},{"OBJECT_NAME":"GOES 9","OBJECT_ID":"1995-025A","EPOCH":"2026-03-06T10:04:15.931776","MEAN_MOTION":0.98798221,"ECCENTRICITY":0.0003579,"INCLINATION":13.8716,"RA_OF_ASC_NODE":15.2988,"ARG_OF_PERICENTER":210.7665,"MEAN_ANOMALY":358.306,"EPHEMERIS_TYPE":0,"CLASSIFICATION_TYPE":"U","NORAD_CAT_ID":23581,"ELEMENT_SET_NO":999,"REV_AT_EPOCH":11174,"BSTAR":0,"MEAN_MOTION_DOT":-3.6e-7,"MEAN_MOTION_DDOT":0},{"OBJECT_NAME":"GOES 10","OBJECT_ID":"1997-019A","EPOCH":"2026-03-06T21:12:37.551744","MEAN_MOTION":0.99121823,"ECCENTRICITY":0.0030868,"INCLINATION":13.0069,"RA_OF_ASC_NODE":21.8289,"ARG_OF_PERICENTER":239.2562,"MEAN_ANOMALY":307.4624,"EPHEMERIS_TYPE":0,"CLASSIFICATION_TYPE":"U","NORAD_CAT_ID":24786,"ELEMENT_SET_NO":999,"REV_AT_EPOCH":10505,"BSTAR":0,"MEAN_MOTION_DOT":-1.7e-7,"MEAN_MOTION_DDOT":0},{"OBJECT_NAME":"GOES 11","OBJECT_ID":"2000-022A","EPOCH":"2026-03-06T22:06:02.431008","MEAN_MOTION":0.99040209,"ECCENTRICITY":0.0005901,"INCLINATION":11.5858,"RA_OF_ASC_NODE":47.4192,"ARG_OF_PERICENTER":255.1845,"MEAN_ANOMALY":106.43,"EPHEMERIS_TYPE":0,"CLASSIFICATION_TYPE":"U","NORAD_CAT_ID":26352,"ELEMENT_SET_NO":999,"REV_AT_EPOCH":5146,"BSTAR":0,"MEAN_MOTION_DOT":-5.2e-7,"MEAN_MOTION_DDOT":0},{"OBJECT_NAME":"GOES 12","OBJECT_ID":"2001-031A","EPOCH":"2026-03-06T20:28:12.026208","MEAN_MOTION":0.99136373,"ECCENTRICITY":0.0008762,"INCLINATION":11.9994,"RA_OF_ASC_NODE":38.1221,"ARG_OF_PERICENTER":296.3208,"MEAN_ANOMALY":67.4291,"EPHEMERIS_TYPE":0,"CLASSIFICATION_TYPE":"U","NORAD_CAT_ID":26871,"ELEMENT_SET_NO":999,"REV_AT_EPOCH":8975,"BSTAR":0,"MEAN_MOTION_DOT":-1.51e-6,"MEAN_MOTION_DDOT":0},{"OBJECT_NAME":"EWS-G1 (GOES 13)","OBJECT_ID":"2006-018A","EPOCH":"2026-03-07T03:22:38.728128","MEAN_MOTION":0.98785715,"ECCENTRICITY":0.0062004,"INCLINATION":4.2678,"RA_OF_ASC_NODE":77.6681,"ARG_OF_PERICENTER":273.3828,"MEAN_ANOMALY":98.6687,"EPHEMERIS_TYPE":0,"CLASSIFICATION_TYPE":"U","NORAD_CAT_ID":29155,"ELEMENT_SET_NO":999,"REV_AT_EPOCH":4224,"BSTAR":0,"MEAN_MOTION_DOT":4.8e-7,"MEAN_MOTION_DDOT":0},{"OBJECT_NAME":"GOES 14","OBJECT_ID":"2009-033A","EPOCH":"2026-03-07T03:46:38.577216","MEAN_MOTION":1.00100668,"ECCENTRICITY":0.0001762,"INCLINATION":1.4261,"RA_OF_ASC_NODE":84.3808,"ARG_OF_PERICENTER":257.9935,"MEAN_ANOMALY":79.309,"EPHEMERIS_TYPE":0,"CLASSIFICATION_TYPE":"U","NORAD_CAT_ID":35491,"ELEMENT_SET_NO":999,"REV_AT_EPOCH":556,"BSTAR":0,"MEAN_MOTION_DOT":1.21e-6,"MEAN_MOTION_DDOT":0},{"OBJECT_NAME":"EWS-G2 (GOES 15)","OBJECT_ID":"2010-008A","EPOCH":"2026-03-07T02:14:27.633696","MEAN_MOTION":1.00269918,"ECCENTRICITY":0.0002107,"INCLINATION":1.0152,"RA_OF_ASC_NODE":85.0941,"ARG_OF_PERICENTER":17.4335,"MEAN_ANOMALY":159.3498,"EPHEMERIS_TYPE":0,"CLASSIFICATION_TYPE":"U","NORAD_CAT_ID":36411,"ELEMENT_SET_NO":999,"REV_AT_EPOCH":5861,"BSTAR":0,"MEAN_MOTION_DOT":1.9e-7,"MEAN_MOTION_DDOT":0},{"OBJECT_NAME":"GOES 16","OBJECT_ID":"2016-071A","EPOCH":"2026-03-07T03:06:38.820672","MEAN_MOTION":1.00272234,"ECCENTRICITY":0.0002367,"INCLINATION":0.1375,"RA_OF_ASC_NODE":89.0814,"ARG_OF_PERICENTER":223.3484,"MEAN_ANOMALY":154.3671,"EPHEMERIS_TYPE":0,"CLASSIFICATION_TYPE":"U","NORAD_CAT_ID":41866,"ELEMENT_SET_NO":999,"REV_AT_EPOCH":3408,"BSTAR":0,"MEAN_MOTION_DOT":-9.3e-7,"MEAN_MOTION_DDOT":0},{"OBJECT_NAME":"GOES 17","OBJECT_ID":"2018-022A","EPOCH":"2026-03-07T02:58:38.621568","MEAN_MOTION":1.0027012,"ECCENTRICITY":0.0002093,"INCLINATION":0.6749,"RA_OF_ASC_NODE":87.4941,"ARG_OF_PERICENTER":226.3837,"MEAN_ANOMALY":166.0912,"EPHEMERIS_TYPE":0,"CLASSIFICATION_TYPE":"U","NORAD_CAT_ID":43226,"ELEMENT_SET_NO":999,"REV_AT_EPOCH":2940,"BSTAR":0,"MEAN_MOTION_DOT":-1.84e-6,"MEAN_MOTION_DDOT":0}]
